QIANFAN-1               
1 60379U 24140A   26027.90872864  .00000174  00000+0  25109-3 0  9998
2 60379  88.9771 294.5098 0019290  80.9976 279.3358 13.50991311 73587
QIANFAN-2               
1 60380U 24140B   26027.93755574  .00000167  00000+0  23900-3 0  9990
2 60380  88.9757 294.3398 0014473  56.3187 303.9342 13.50995383 73640
QIANFAN-3               
1 60381U 24140C   26027.94571536  .00000173  00000+0  24865-3 0  9994
2 60381  88.9749 294.4681 0015688  67.2952 292.9856 13.50995868 73553
QIANFAN-4               
1 60382U 24140D   26027.92103108  .00000172  00000+0  24768-3 0  9990
2 60382  88.9774 294.3799 0014736  58.6182 301.6409 13.50991497 73672
QIANFAN-5               
1 60383U 24140E   26027.89642851  .00000157  00000+0  22399-3 0  9991
2 60383  88.9749 294.4986 0016974  77.4307 282.8742 13.50993628 73531
QIANFAN-6               
1 60384U 24140F   26027.91699727  .00000171  00000+0  24666-3 0  9994
2 60384  88.9776 294.2550 0014894  63.9136 296.3546 13.50993577 73733
QIANFAN-7               
1 60385U 24140G   26027.93266500  .00000877  00000+0  34939-3 0  9993
2 60385  88.9784 288.3036 0012857 248.0659 111.9169 14.27734827 76988
QIANFAN-8               
1 60386U 24140H   26027.92526696  .00000163  00000+0  23287-3 0  9990
2 60386  88.9777 294.4923 0018361  65.6220 294.6845 13.50994957 73587
